[{"OBJECT_NAME":"ONEWEB-0307","OBJECT_ID":"2021-083D","EPOCH":"2026-03-09T23:26:01.832640","MEAN_MOTION":13.13469289,"ECCENTRICITY":0.00017362,"INCLINATION":87.9027,"RA_OF_ASC_NODE":339.9741,"ARG_OF_PERICENTER":77.623,"MEAN_ANOMALY":282.5093,"EPHEMERIS_TYPE":0,"CLASSIFICATION_TYPE":"U","NORAD_CAT_ID":49189,"ELEMENT_SET_NO":999,"REV_AT_EPOCH":21790,"BSTAR":0.00089492219,"MEAN_MOTION_DOT":3.4e-6,"MEAN_MOTION_DDOT":0},{"OBJECT_NAME":"DELTA 1 DEB","OBJECT_ID":"1976-077X","EPOCH":"2026-03-09T21:03:53.244576","MEAN_MOTION":13.37358686,"ECCENTRICITY":0.01201226,"INCLINATION":101.1904,"RA_OF_ASC_NODE":34.3791,"ARG_OF_PERICENTER":272.7336,"MEAN_ANOMALY":144.204,"EPHEMERIS_TYPE":0,"CLASSIFICATION_TYPE":"U","NORAD_CAT_ID":10661,"ELEMENT_SET_NO":999,"REV_AT_EPOCH":32152,"BSTAR":-0.0039509482,"MEAN_MOTION_DOT":-2.206e-5,"MEAN_MOTION_DDOT":0}]
